start=new Date('2023-01-17T00:00:00.000Z').valueOf();
sats=[{"EPHEMERIS_TYPE":"0","CENTER_NAME":"EARTH","REF_FRAME":"TEME","MEAN_MOTION":"15.08845111","NORAD_CAT_ID":"52118","SITE":"AFETR","RCS_SIZE":"LARGE","APOAPSIS":"541.063","SEMIMAJOR_AXIS":"6917.865","COUNTRY_CODE":"US","GP_ID":"223252584","FILE":"3750956","LAUNCH_DATE":"2022-03-19","TLE_LINE2":"2 52118  53.2163 191.9196 0001927  56.3800 303.7376 15.08845111 47505","MEAN_MOTION_DDOT":"0.0000000000000","ARG_OF_PERICENTER":"56.3800","INCLINATION":"53.2163","RA_OF_ASC_NODE":"191.9196","MEAN_ELEMENT_THEORY":"SGP4","PERIOD":"95.437","BSTAR":"0.00008159900000","TIME_SYSTEM":"UTC","DECAY_DATE":null,"OBJECT_TYPE":"PAYLOAD","TLE_LINE1":"1 52118U 22029AG  23016.86256314  .00001011  00000-0  81599-4 0  9998","MEAN_MOTION_DOT":"0.00001011","ELEMENT_SET_NO":"999","OBJECT_NAME":"STARLINK-3743","MEAN_ANOMALY":"303.7376","EPOCH":"2023-01-16T20:42:05.455296","OBJECT_ID":"2022-029AG","PERIAPSIS":"538.397","ECCENTRICITY":"0.00019270","REV_AT_EPOCH":"4750","CLASSIFICATION_TYPE":"U"},{"APOAPSIS":"541.445","SEMIMAJOR_AXIS":"6917.879","LAUNCH_DATE":"2022-03-19","COUNTRY_CODE":"US","FILE":"3750956","GP_ID":"223252834","TLE_LINE2":"2 52119  53.2166 191.7136 0002459  55.4472 304.6752 15.08840415 47518","MEAN_MOTION_DDOT":"0.0000000000000","INCLINATION":"53.2166","ARG_OF_PERICENTER":"55.4472","PERIOD":"95.438","RA_OF_ASC_NODE":"191.7136","MEAN_ELEMENT_THEORY":"SGP4","EPHEMERIS_TYPE":"0","CENTER_NAME":"EARTH","REF_FRAME":"TEME","NORAD_CAT_ID":"52119","MEAN_MOTION":"15.08840415","RCS_SIZE":"LARGE","SITE":"AFETR","OBJECT_NAME":"STARLINK-3558","MEAN_ANOMALY":"304.6752","EPOCH":"2023-01-16T21:50:58.936704","OBJECT_ID":"2022-029AH","PERIAPSIS":"538.043","REV_AT_EPOCH":"4751","ECCENTRICITY":"0.00024590","CLASSIFICATION_TYPE":"U","BSTAR":"0.00006450000000","OBJECT_TYPE":"PAYLOAD","DECAY_DATE":null,"TIME_SYSTEM":"UTC","TLE_LINE1":"1 52119U 22029AH  23016.91040436  .00000738  00000-0  64500-4 0  9999","MEAN_MOTION_DOT":"0.00000738","ELEMENT_SET_NO":"999"},{"SITE":"AFETR","RCS_SIZE":"LARGE","MEAN_MOTION":"15.08836761","NORAD_CAT_ID":"52120","CENTER_NAME":"EARTH","REF_FRAME":"TEME","EPHEMERIS_TYPE":"0","RA_OF_ASC_NODE":"192.5497","MEAN_ELEMENT_THEORY":"SGP4","PERIOD":"95.438","TLE_LINE2":"2 52120  53.2148 192.5497 0002355  53.9271 306.1939 15.08836761 47494","MEAN_MOTION_DDOT":"0.0000000000000","ARG_OF_PERICENTER":"53.9271","INCLINATION":"53.2148","COUNTRY_CODE":"US","FILE":"3750956","GP_ID":"223253081","LAUNCH_DATE":"2022-03-19","APOAPSIS":"541.384","SEMIMAJOR_AXIS":"6917.890","TLE_LINE1":"1 52120U 22029AJ  23016.72272787  .00001136  00000-0  89486-4 0  9999","MEAN_MOTION_DOT":"0.00001136","ELEMENT_SET_NO":"999","TIME_SYSTEM":"UTC","OBJECT_TYPE":"PAYLOAD","DECAY_DATE":null,"BSTAR":"0.00008948600000","CLASSIFICATION_TYPE":"U","ECCENTRICITY":"0.00023550","REV_AT_EPOCH":"4749","PERIAPSIS":"538.126","OBJECT_ID":"2022-029AJ","OBJECT_NAME":"STARLINK-3534","MEAN_ANOMALY":"306.1939","EPOCH":"2023-01-16T17:20:43.687968"},{"OBJECT_ID":"2022-029AK","PERIAPSIS":"538.206","OBJECT_NAME":"STARLINK-3678","MEAN_ANOMALY":"308.0168","EPOCH":"2023-01-16T19:50:25.503648","CLASSIFICATION_TYPE":"U","REV_AT_EPOCH":"4763","ECCENTRICITY":"0.00022160","TIME_SYSTEM":"UTC","DECAY_DATE":null,"OBJECT_TYPE":"PAYLOAD","BSTAR":"0.00008659400000","MEAN_MOTION_DOT":"0.00001090","TLE_LINE1":"1 52121U 22029AK  23016.82668407  .00001090  00000-0  86594-4 0  9995","ELEMENT_SET_NO":"999","COUNTRY_CODE":"US","GP_ID":"223253836","FILE":"3750956","LAUNCH_DATE":"2022-03-19","APOAPSIS":"541.272","SEMIMAJOR_AXIS":"6917.874","RA_OF_ASC_NODE":"182.0806","MEAN_ELEMENT_THEORY":"SGP4","PERIOD":"95.437","ARG_OF_PERICENTER":"52.1024","TLE_LINE2":"2 52121  53.2184 182.0806 0002216  52.1024 308.0168 15.08842039 47632","MEAN_MOTION_DDOT":"0.0000000000000","INCLINATION":"53.2184","CENTER_NAME":"EARTH","REF_FRAME":"TEME","EPHEMERIS_TYPE":"0","SITE":"AFETR","RCS_SIZE":"LARGE","MEAN_MOTION":"15.08842039","NORAD_CAT_ID":"52121"},{"SEMIMAJOR_AXIS":"6917.867","APOAPSIS":"541.043","GP_ID":"223252085","FILE":"3750956","COUNTRY_CODE":"US","LAUNCH_DATE":"2022-03-19","TLE_LINE2":"2 52122  53.2165 191.6964 0001896  62.4647 297.6538 15.08844489 47513","INCLINATION":"53.2165","MEAN_MOTION_DDOT":"0.0000000000000","ARG_OF_PERICENTER":"62.4647","MEAN_ELEMENT_THEORY":"SGP4","RA_OF_ASC_NODE":"191.6964","PERIOD":"95.437","EPHEMERIS_TYPE":"0","REF_FRAME":"TEME","CENTER_NAME":"EARTH","MEAN_MOTION":"15.08844489","NORAD_CAT_ID":"52122","SITE":"AFETR","RCS_SIZE":"LARGE","MEAN_ANOMALY":"297.6538","EPOCH":"2023-01-16T21:56:16.569024","OBJECT_NAME":"STARLINK-3726","OBJECT_ID":"2022-029AL","PERIAPSIS":"538.420","REV_AT_EPOCH":"4751","ECCENTRICITY":"0.00018960","CLASSIFICATION_TYPE":"U","BSTAR":"0.00008646500000","TIME_SYSTEM":"UTC","OBJECT_TYPE":"PAYLOAD","DECAY_DATE":null,"ELEMENT_SET_NO":"999","TLE_LINE1":"1 52122U 22029AL  23016.91408066  .00001088  00000-0  86465-4 0  9993","MEAN_MOTION_DOT":"0.00001088"},{"TLE_LINE1":"1 52123U 22029AM  23016.88559068  .00000025  00000-0  19674-4 0  9997","MEAN_MOTION_DOT":"0.00000025","ELEMENT_SET_NO":"999","DECAY_DATE":null,"OBJECT_TYPE":"PAYLOAD","TIME_SYSTEM":"UTC","BSTAR":"0.00001967400000","CLASSIFICATION_TYPE":"U","REV_AT_EPOCH":"4765","ECCENTRICITY":"0.00020820","PERIAPSIS":"538.362","OBJECT_ID":"2022-029AM","OBJECT_NAME":"STARLINK-3725","EPOCH":"2023-01-16T21:15:15.034752","MEAN_ANOMALY":"309.2114","RCS_SIZE":"LARGE","SITE":"AFETR","NORAD_CAT_ID":"52123","MEAN_MOTION":"15.08821423","CENTER_NAME":"EARTH","REF_FRAME":"TEME","EPHEMERIS_TYPE":"0","PERIOD":"95.439","RA_OF_ASC_NODE":"181.8225","MEAN_ELEMENT_THEORY":"SGP4","MEAN_MOTION_DDOT":"0.0000000000000","TLE_LINE2":"2 52123  53.2155 181.8225 0002082  50.9063 309.2114 15.08821423 47654","ARG_OF_PERICENTER":"50.9063","INCLINATION":"53.2155","LAUNCH_DATE":"2022-03-19","COUNTRY_CODE":"US","FILE":"3750956","GP_ID":"223252334","APOAPSIS":"541.242","SEMIMAJOR_AXIS":"6917.937"},{"CLASSIFICATION_TYPE":"U","ECCENTRICITY":"0.00019980","REV_AT_EPOCH":"4751","OBJECT_ID":"2022-029AN","PERIAPSIS":"538.359","MEAN_ANOMALY":"296.8694","EPOCH":"2023-01-16T21:45:40.780800","OBJECT_NAME":"STARLINK-3684","ELEMENT_SET_NO":"999","MEAN_MOTION_DOT":"0.00000686","TLE_LINE1":"1 52124U 22029AN  23016.90672200  .00000686  00000-0  61200-4 0  9990","TIME_SYSTEM":"UTC","DECAY_DATE":null,"OBJECT_TYPE":"PAYLOAD","BSTAR":"0.00006120000000","MEAN_ELEMENT_THEORY":"SGP4","RA_OF_ASC_NODE":"191.7264","PERIOD":"95.437","INCLINATION":"53.2156","TLE_LINE2":"2 52124  53.2156 191.7264 0001998  63.2502 296.8694 15.08841404 47519","MEAN_MOTION_DDOT":"0.0000000000000","ARG_OF_PERICENTER":"63.2502","GP_ID":"223253582","FILE":"3750956","COUNTRY_CODE":"US","LAUNCH_DATE":"2022-03-19","SEMIMAJOR_AXIS":"6917.876","APOAPSIS":"541.123","SITE":"AFETR","RCS_SIZE":"LARGE","MEAN_MOTION":"15.08841404","NORAD_CAT_ID":"52124","REF_FRAME":"TEME","CENTER_NAME":"EARTH","EPHEMERIS_TYPE":"0"},{"OBJECT_TYPE":"PAYLOAD","DECAY_DATE":null,"TIME_SYSTEM":"UTC","BSTAR":"0.00007220300000","ELEMENT_SET_NO":"999","TLE_LINE1":"1 52125U 22029AP  23016.74940176  .00000861  00000-0  72203-4 0  9993","MEAN_MOTION_DOT":"0.00000861","OBJECT_ID":"2022-029AP","PERIAPSIS":"538.116","EPOCH":"2023-01-16T17:59:08.312064","MEAN_ANOMALY":"308.0623","OBJECT_NAME":"STARLINK-3727","CLASSIFICATION_TYPE":"U","REV_AT_EPOCH":"4763","ECCENTRICITY":"0.00023540","REF_FRAME":"TEME","CENTER_NAME":"EARTH","EPHEMERIS_TYPE":"0","RCS_SIZE":"LARGE","SITE":"AFETR","NORAD_CAT_ID":"52125","MEAN_MOTION":"15.08840262","LAUNCH_DATE":"2022-03-19","FILE":"3750956","GP_ID":"223253336","COUNTRY_CODE":"US","SEMIMAJOR_AXIS":"6917.880","APOAPSIS":"541.373","PERIOD":"95.438","MEAN_ELEMENT_THEORY":"SGP4","RA_OF_ASC_NODE":"182.4163","INCLINATION":"53.2174","TLE_LINE2":"2 52125  53.2174 182.4163 0002354  52.0582 308.0623 15.08840262 47638","MEAN_MOTION_DDOT":"0.0000000000000","ARG_OF_PERICENTER":"52.0582"},{"SEMIMAJOR_AXIS":"6917.866","APOAPSIS":"541.383","LAUNCH_DATE":"2022-03-19","GP_ID":"223252585","FILE":"3750956","COUNTRY_CODE":"US","TLE_LINE2":"2 52126  53.2162 181.7967 0002388  52.3614 307.7595 15.08844839 47645","MEAN_MOTION_DDOT":"0.0000000000000","ARG_OF_PERICENTER":"52.3614","INCLINATION":"53.2162","PERIOD":"95.437","MEAN_ELEMENT_THEORY":"SGP4","RA_OF_ASC_NODE":"181.7967","EPHEMERIS_TYPE":"0","REF_FRAME":"TEME","CENTER_NAME":"EARTH","NORAD_CAT_ID":"52126","MEAN_MOTION":"15.08844839","RCS_SIZE":"LARGE","SITE":"AFETR","EPOCH":"2023-01-16T21:20:30.475104","MEAN_ANOMALY":"307.7595","OBJECT_NAME":"STARLINK-3732","OBJECT_ID":"2022-029AQ","PERIAPSIS":"538.079","ECCENTRICITY":"0.00023880","REV_AT_EPOCH":"4764","CLASSIFICATION_TYPE":"U","BSTAR":"0.00012803000000","DECAY_DATE":null,"OBJECT_TYPE":"PAYLOAD","TIME_SYSTEM":"UTC","ELEMENT_SET_NO":"999","TLE_LINE1":"1 52126U 22029AQ  23016.88924161  .00001750  00000-0  12803-3 0  9992","MEAN_MOTION_DOT":"0.00001750"},{"BSTAR":"0.00029809000000","TIME_SYSTEM":"UTC","DECAY_DATE":null,"OBJECT_TYPE":"PAYLOAD","TLE_LINE1":"1 52127U 22029AR  23016.87817255  .00004463  00000-0  29809-3 0  9995","MEAN_MOTION_DOT":"0.00004463","ELEMENT_SET_NO":"999","OBJECT_NAME":"STARLINK-3715","MEAN_ANOMALY":"313.4104","EPOCH":"2023-01-16T21:04:34.108320","PERIAPSIS":"537.637","OBJECT_ID":"2022-029AR","ECCENTRICITY":"0.00029070","REV_AT_EPOCH":"4764","CLASSIFICATION_TYPE":"U","EPHEMERIS_TYPE":"0","CENTER_NAME":"EARTH","REF_FRAME":"TEME","MEAN_MOTION":"15.08871955","NORAD_CAT_ID":"52127","SITE":"AFETR","RCS_SIZE":"LARGE","APOAPSIS":"541.659","SEMIMAJOR_AXIS":"6917.783","COUNTRY_CODE":"US","FILE":"3750956","GP_ID":"223252835","LAUNCH_DATE":"2022-03-19","TLE_LINE2":"2 52127  53.2169 181.8467 0002907  46.7131 313.4104 15.08871955 47646","INCLINATION":"53.2169","MEAN_MOTION_DDOT":"0.0000000000000","ARG_OF_PERICENTER":"46.7131","RA_OF_ASC_NODE":"181.8467","MEAN_ELEMENT_THEORY":"SGP4","PERIOD":"95.436"}];
